[{"OBJECT_NAME":"STARLINK-31746","OBJECT_ID":"2024-080N","EPOCH":"2026-03-09T22:19:20.461152","MEAN_MOTION":15.27559098,"ECCENTRICITY":8.792e-5,"INCLINATION":42.999,"RA_OF_ASC_NODE":40.4779,"ARG_OF_PERICENTER":294.1937,"MEAN_ANOMALY":65.8823,"EPHEMERIS_TYPE":0,"CLASSIFICATION_TYPE":"U","NORAD_CAT_ID":59613,"ELEMENT_SET_NO":999,"REV_AT_EPOCH":10452,"BSTAR":0.00023174488,"MEAN_MOTION_DOT":6.116e-5,"MEAN_MOTION_DDOT":0},{"OBJECT_NAME":"CZ-6A DEB","OBJECT_ID":"2024-140RA","EPOCH":"2026-03-09T01:51:18.259488","MEAN_MOTION":15.31763252,"ECCENTRICITY":0.00411794,"INCLINATION":89.1856,"RA_OF_ASC_NODE":296.0787,"ARG_OF_PERICENTER":96.6516,"MEAN_ANOMALY":263.9425,"EPHEMERIS_TYPE":0,"CLASSIFICATION_TYPE":"U","NORAD_CAT_ID":61156,"ELEMENT_SET_NO":999,"REV_AT_EPOCH":8391,"BSTAR":0.0079173326,"MEAN_MOTION_DOT":0.00256788,"MEAN_MOTION_DDOT":0}]
